start=new Date('2022-06-19T00:00:00.000Z').valueOf();
sats=[{"COUNTRY_CODE":"US","INCLINATION":"53.2157","OBJECT_NAME":"STARLINK-3158","EPOCH":"2022-06-15T21:01:12.277056","MEAN_ANOMALY":"324.3918","ELEMENT_SET_NO":"999","ARG_OF_PERICENTER":"35.7235","EPHEMERIS_TYPE":"0","FILE":"3496999","DECAY_DATE":null,"OBJECT_TYPE":"PAYLOAD","REV_AT_EPOCH":"3303","REF_FRAME":"TEME","TLE_LINE1":"1 49432U 21104AA  22166.87583654 -.00000625  00000-0 -21123-4 0  9991","ECCENTRICITY":"0.00024140","GP_ID":"206239359","RCS_SIZE":"LARGE","MEAN_MOTION_DDOT":"0.0000000000000","OBJECT_ID":"2021-104AA","TIME_SYSTEM":"UTC","LAUNCH_DATE":"2021-11-13","PERIOD":"95.438","MEAN_MOTION":"15.08838434","BSTAR":"-0.00002112300000","CLASSIFICATION_TYPE":"U","TLE_LINE2":"2 49432  53.2157 217.0373 0002414  35.7235 324.3918 15.08838434 33039","MEAN_ELEMENT_THEORY":"SGP4","CENTER_NAME":"EARTH","APOAPSIS":"541.420","SITE":"AFETR","NORAD_CAT_ID":"49432","MEAN_MOTION_DOT":"-0.00000625","RA_OF_ASC_NODE":"217.0373","PERIAPSIS":"538.080","SEMIMAJOR_AXIS":"6917.885"},{"OBJECT_TYPE":"PAYLOAD","FILE":"3496999","EPHEMERIS_TYPE":"0","DECAY_DATE":null,"REV_AT_EPOCH":"3425","REF_FRAME":"TEME","TLE_LINE1":"1 49433U 21104AB  22166.80956660 -.00000416  00000-0 -80452-5 0  9995","INCLINATION":"53.2162","COUNTRY_CODE":"US","EPOCH":"2022-06-15T19:25:46.554240","OBJECT_NAME":"STARLINK-3079","ELEMENT_SET_NO":"999","MEAN_ANOMALY":"323.6417","ARG_OF_PERICENTER":"36.4727","CENTER_NAME":"EARTH","MEAN_ELEMENT_THEORY":"SGP4","APOAPSIS":"541.310","TLE_LINE2":"2 49433  53.2162 207.3266 0002241  36.4727 323.6417 15.08835438 34253","SITE":"AFETR","NORAD_CAT_ID":"49433","RA_OF_ASC_NODE":"207.3266","MEAN_MOTION_DOT":"-0.00000416","SEMIMAJOR_AXIS":"6917.894","PERIAPSIS":"538.209","GP_ID":"206238107","RCS_SIZE":"LARGE","MEAN_MOTION_DDOT":"0.0000000000000","ECCENTRICITY":"0.00022410","OBJECT_ID":"2021-104AB","LAUNCH_DATE":"2021-11-13","PERIOD":"95.438","TIME_SYSTEM":"UTC","BSTAR":"-0.00000804520000","CLASSIFICATION_TYPE":"U","MEAN_MOTION":"15.08835438"},{"RA_OF_ASC_NODE":"226.8980","MEAN_MOTION_DOT":"-0.00000636","SEMIMAJOR_AXIS":"6917.898","PERIAPSIS":"538.031","CENTER_NAME":"EARTH","MEAN_ELEMENT_THEORY":"SGP4","APOAPSIS":"541.495","TLE_LINE2":"2 49434  53.2174 226.8980 0002503  28.9529 331.1602 15.08834252 33985","NORAD_CAT_ID":"49434","SITE":"AFETR","LAUNCH_DATE":"2021-11-13","PERIOD":"95.438","TIME_SYSTEM":"UTC","BSTAR":"-0.00002184200000","CLASSIFICATION_TYPE":"U","MEAN_MOTION":"15.08834252","MEAN_MOTION_DDOT":"0.0000000000000","GP_ID":"206290110","RCS_SIZE":"LARGE","ECCENTRICITY":"0.00025030","OBJECT_ID":"2021-104AC","REF_FRAME":"TEME","TLE_LINE1":"1 49434U 21104AC  22166.90708465 -.00000636  00000-0 -21842-4 0  9996","OBJECT_TYPE":"PAYLOAD","EPHEMERIS_TYPE":"0","FILE":"3497002","DECAY_DATE":null,"REV_AT_EPOCH":"3398","ELEMENT_SET_NO":"999","MEAN_ANOMALY":"331.1602","ARG_OF_PERICENTER":"28.9529","INCLINATION":"53.2174","COUNTRY_CODE":"US","OBJECT_NAME":"STARLINK-3134","EPOCH":"2022-06-15T21:46:12.113760"},{"GP_ID":"206290858","MEAN_MOTION_DDOT":"0.0000000000000","RCS_SIZE":"LARGE","ECCENTRICITY":"0.00022990","OBJECT_ID":"2021-104AD","LAUNCH_DATE":"2021-11-13","PERIOD":"95.437","TIME_SYSTEM":"UTC","CLASSIFICATION_TYPE":"U","BSTAR":"0.00036717000000","MEAN_MOTION":"15.08853356","APOAPSIS":"541.295","CENTER_NAME":"EARTH","MEAN_ELEMENT_THEORY":"SGP4","TLE_LINE2":"2 49435  53.2139 206.7207 0002299  42.3822 317.7347 15.08853356 33188","SITE":"AFETR","NORAD_CAT_ID":"49435","RA_OF_ASC_NODE":"206.7207","MEAN_MOTION_DOT":"0.00005562","SEMIMAJOR_AXIS":"6917.840","PERIAPSIS":"538.114","INCLINATION":"53.2139","COUNTRY_CODE":"US","OBJECT_NAME":"STARLINK-3117","EPOCH":"2022-06-15T22:43:13.246176","ELEMENT_SET_NO":"999","MEAN_ANOMALY":"317.7347","ARG_OF_PERICENTER":"42.3822","OBJECT_TYPE":"PAYLOAD","DECAY_DATE":null,"EPHEMERIS_TYPE":"0","FILE":"3497002","REV_AT_EPOCH":"3318","REF_FRAME":"TEME","TLE_LINE1":"1 49435U 21104AD  22166.94668109  .00005562  00000-0  36717-3 0  9998"},{"REV_AT_EPOCH":"3316","FILE":"3496999","EPHEMERIS_TYPE":"0","DECAY_DATE":null,"OBJECT_TYPE":"PAYLOAD","TLE_LINE1":"1 49436U 21104AE  22166.81324377  .00001575  00000-0  11702-3 0  9998","REF_FRAME":"TEME","OBJECT_NAME":"STARLINK-3049","EPOCH":"2022-06-15T19:31:04.261728","COUNTRY_CODE":"US","INCLINATION":"53.2155","ARG_OF_PERICENTER":"56.3472","MEAN_ANOMALY":"303.7681","ELEMENT_SET_NO":"999","SITE":"AFETR","NORAD_CAT_ID":"49436","TLE_LINE2":"2 49436  53.2155 207.3042 0001690  56.3472 303.7681 15.08844678 33162","CENTER_NAME":"EARTH","MEAN_ELEMENT_THEORY":"SGP4","APOAPSIS":"540.900","PERIAPSIS":"538.562","SEMIMAJOR_AXIS":"6917.866","MEAN_MOTION_DOT":"0.00001575","RA_OF_ASC_NODE":"207.3042","OBJECT_ID":"2021-104AE","ECCENTRICITY":"0.00016900","GP_ID":"206239859","MEAN_MOTION_DDOT":"0.0000000000000","RCS_SIZE":"LARGE","MEAN_MOTION":"15.08844678","BSTAR":"0.00011702000000","CLASSIFICATION_TYPE":"U","TIME_SYSTEM":"UTC","LAUNCH_DATE":"2021-11-13","PERIOD":"95.437"},{"ECCENTRICITY":"0.00024710","GP_ID":"206289362","RCS_SIZE":"LARGE","MEAN_MOTION_DDOT":"0.0000000000000","OBJECT_ID":"2021-104AF","TIME_SYSTEM":"UTC","LAUNCH_DATE":"2021-11-13","PERIOD":"95.437","MEAN_MOTION":"15.08852555","CLASSIFICATION_TYPE":"U","BSTAR":"0.00017700000000","TLE_LINE2":"2 49437  53.2160 206.1661 0002471  31.5559 328.5581 15.08852555 33204","APOAPSIS":"541.416","MEAN_ELEMENT_THEORY":"SGP4","CENTER_NAME":"EARTH","SITE":"AFETR","NORAD_CAT_ID":"49437","MEAN_MOTION_DOT":"0.00002531","RA_OF_ASC_NODE":"206.1661","PERIAPSIS":"537.998","SEMIMAJOR_AXIS":"6917.842","COUNTRY_CODE":"US","INCLINATION":"53.2160","EPOCH":"2022-06-16T01:42:01.126368","OBJECT_NAME":"STARLINK-3130","MEAN_ANOMALY":"328.5581","ELEMENT_SET_NO":"999","ARG_OF_PERICENTER":"31.5559","DECAY_DATE":null,"FILE":"3497002","EPHEMERIS_TYPE":"0","OBJECT_TYPE":"PAYLOAD","REV_AT_EPOCH":"3320","REF_FRAME":"TEME","TLE_LINE1":"1 49437U 21104AF  22167.07084637  .00002531  00000-0  17700-3 0  9997"},{"OBJECT_NAME":"STARLINK-3044","EPOCH":"2022-06-15T19:15:10.538784","INCLINATION":"53.2167","COUNTRY_CODE":"US","ARG_OF_PERICENTER":"31.6140","ELEMENT_SET_NO":"999","MEAN_ANOMALY":"328.5014","REV_AT_EPOCH":"3316","OBJECT_TYPE":"PAYLOAD","FILE":"3496999","EPHEMERIS_TYPE":"0","DECAY_DATE":null,"TLE_LINE1":"1 49438U 21104AG  22166.80220531 -.00001263  00000-0 -61264-4 0  9991","REF_FRAME":"TEME","OBJECT_ID":"2021-104AG","GP_ID":"206238857","MEAN_MOTION_DDOT":"0.0000000000000","RCS_SIZE":"LARGE","ECCENTRICITY":"0.00027010","CLASSIFICATION_TYPE":"U","BSTAR":"-0.00006126400000","MEAN_MOTION":"15.08834065","PERIOD":"95.438","LAUNCH_DATE":"2021-11-13","TIME_SYSTEM":"UTC","SITE":"AFETR","NORAD_CAT_ID":"49438","MEAN_ELEMENT_THEORY":"SGP4","CENTER_NAME":"EARTH","APOAPSIS":"541.632","TLE_LINE2":"2 49438  53.2167 207.3686 0002701  31.6140 328.5014 15.08834065 33167","SEMIMAJOR_AXIS":"6917.899","PERIAPSIS":"537.895","RA_OF_ASC_NODE":"207.3686","MEAN_MOTION_DOT":"-0.00001263"},{"PERIAPSIS":"537.903","SEMIMAJOR_AXIS":"6917.877","MEAN_MOTION_DOT":"-0.00001347","RA_OF_ASC_NODE":"207.1484","SITE":"AFETR","NORAD_CAT_ID":"49439","TLE_LINE2":"2 49439  53.2188 207.1484 0002659  35.4141 324.7028 15.08840976 33172","MEAN_ELEMENT_THEORY":"SGP4","CENTER_NAME":"EARTH","APOAPSIS":"541.582","MEAN_MOTION":"15.08840976","CLASSIFICATION_TYPE":"U","BSTAR":"-0.00006654100000","TIME_SYSTEM":"UTC","LAUNCH_DATE":"2021-11-13","PERIOD":"95.437","OBJECT_ID":"2021-104AH","ECCENTRICITY":"0.00026590","RCS_SIZE":"LARGE","GP_ID":"206239109","MEAN_MOTION_DDOT":"0.0000000000000","TLE_LINE1":"1 49439U 21104AH  22166.85003827 -.00001347  00000-0 -66541-4 0  9990","REF_FRAME":"TEME","REV_AT_EPOCH":"3317","FILE":"3496999","EPHEMERIS_TYPE":"0","DECAY_DATE":null,"OBJECT_TYPE":"PAYLOAD","ARG_OF_PERICENTER":"35.4141","MEAN_ANOMALY":"324.7028","ELEMENT_SET_NO":"999","OBJECT_NAME":"STARLINK-3108","EPOCH":"2022-06-15T20:24:03.306528","COUNTRY_CODE":"US","INCLINATION":"53.2188"},{"PERIAPSIS":"537.803","SEMIMAJOR_AXIS":"6917.888","MEAN_MOTION_DOT":"-0.00000840","RA_OF_ASC_NODE":"209.1748","NORAD_CAT_ID":"49440","SITE":"AFETR","TLE_LINE2":"2 49440  53.2159 209.1748 0002819  28.5355 331.5791 15.08837357 33100","APOAPSIS":"541.704","CENTER_NAME":"EARTH","MEAN_ELEMENT_THEORY":"SGP4","MEAN_MOTION":"15.08837357","CLASSIFICATION_TYPE":"U","BSTAR":"-0.00003463900000","TIME_SYSTEM":"UTC","PERIOD":"95.438","LAUNCH_DATE":"2021-11-13","OBJECT_ID":"2021-104AJ","ECCENTRICITY":"0.00028190","GP_ID":"206209661","RCS_SIZE":"LARGE","MEAN_MOTION_DDOT":"0.0000000000000","TLE_LINE1":"1 49440U 21104AJ  22166.40108002 -.00000840  00000-0 -34639-4 0  9994","REF_FRAME":"TEME","REV_AT_EPOCH":"3310","DECAY_DATE":null,"EPHEMERIS_TYPE":"0","FILE":"3496794","OBJECT_TYPE":"PAYLOAD","ARG_OF_PERICENTER":"28.5355","MEAN_ANOMALY":"331.5791","ELEMENT_SET_NO":"999","EPOCH":"2022-06-15T09:37:33.313728","OBJECT_NAME":"STARLINK-3105","COUNTRY_CODE":"US","INCLINATION":"53.2159"},{"PERIAPSIS":"537.936","SEMIMAJOR_AXIS":"6917.869","MEAN_MOTION_DOT":"-0.00000304","RA_OF_ASC_NODE":"206.2708","SITE":"AFETR","NORAD_CAT_ID":"49441","TLE_LINE2":"2 49441  53.2176 206.2708 0002600  33.4321 326.6835 15.08843594 33205","APOAPSIS":"541.533","MEAN_ELEMENT_THEORY":"SGP4","CENTER_NAME":"EARTH","MEAN_MOTION":"15.08843594","CLASSIFICATION_TYPE":"U","BSTAR":"-0.00000097473000","TIME_SYSTEM":"UTC","LAUNCH_DATE":"2021-11-13","PERIOD":"95.437","OBJECT_ID":"2021-104AK","ECCENTRICITY":"0.00026000","GP_ID":"206289863","MEAN_MOTION_DDOT":"0.0000000000000","RCS_SIZE":"LARGE","TLE_LINE1":"1 49441U 21104AK  22167.04507673 -.00000304  00000-0 -97473-6 0  9995","REF_FRAME":"TEME","REV_AT_EPOCH":"3320","DECAY_DATE":null,"EPHEMERIS_TYPE":"0","FILE":"3497002","OBJECT_TYPE":"PAYLOAD","ARG_OF_PERICENTER":"33.4321","MEAN_ANOMALY":"326.6835","ELEMENT_SET_NO":"999","EPOCH":"2022-06-16T01:04:54.629472","OBJECT_NAME":"STARLINK-3128","COUNTRY_CODE":"US","INCLINATION":"53.2176"}];
